{
  "type": "FeatureCollection",
  "features": [
    {
      "type": "Feature",
      "properties": {
        "norad_id": 67054,
        "name": "STARLINK-35754",
        "group": "last-30-days",
        "lat": 20.460839149050248,
        "lon": -79.72350168560266,
        "alt_km": 318.228731367557,
        "timestamp": "2025-12-22T05:49:02.189104+00:00",
        "meta_object_name": "STARLINK-35754",
        "meta_object_id": "2025-294AA",
        "meta_epoch": "2025-12-21T20:00:01.999008",
        "meta_mean_motion": 15.85180794,
        "meta_eccentricity": 0.0001752,
        "meta_inclination": 43.0004,
        "meta_ra_of_asc_node": 126.3959,
        "meta_arg_of_pericenter": 281.8515,
        "meta_mean_anomaly": 51.3876,
        "meta_ephemeris_type": 0,
        "meta_classification_type": "U",
        "meta_norad_cat_id": 67054,
        "meta_element_set_no": 999,
        "meta_rev_at_epoch": 157,
        "meta_bstar": -0.0084642,
        "meta_mean_motion_dot": -0.01784533,
        "meta_mean_motion_ddot": 0,
        "tle_line1": "1 67054U 25294AA  25355.83335647 -.01784533  00000+0 -84642-2 0  9991",
        "tle_line2": "2 67054  43.0004 126.3959 0001752 281.8515  51.3876 15.85180794  1576"
      },
      "geometry": {
        "type": "Point",
        "coordinates": [
          -79.72350168560266,
          20.460839149050248
        ]
      }
    },
    {
      "type": "Feature",
      "properties": {
        "norad_id": 67055,
        "name": "STARLINK-35790",
        "group": "last-30-days",
        "lat": 18.962140352328703,
        "lon": -77.76402810926783,
        "alt_km": 318.4748076395499,
        "timestamp": "2025-12-22T05:49:02.189114+00:00",
        "meta_object_name": "STARLINK-35790",
        "meta_object_id": "2025-294AB",
        "meta_epoch": "2025-12-21T20:00:01.999008",
        "meta_mean_motion": 15.85147657,
        "meta_eccentricity": 0.0001903,
        "meta_inclination": 43.0002,
        "meta_ra_of_asc_node": 126.3892,
        "meta_arg_of_pericenter": 278.7171,
        "meta_mean_anomaly": 56.9422,
        "meta_ephemeris_type": 0,
        "meta_classification_type": "U",
        "meta_norad_cat_id": 67055,
        "meta_element_set_no": 999,
        "meta_rev_at_epoch": 177,
        "meta_bstar": -0.0083954,
        "meta_mean_motion_dot": -0.0176984,
        "meta_mean_motion_ddot": 0,
        "tle_line1": "1 67055U 25294AB  25355.83335647 -.01769840  00000+0 -83954-2 0  9991",
        "tle_line2": "2 67055  43.0002 126.3892 0001903 278.7171  56.9422 15.85147657  1773"
      },
      "geometry": {
        "type": "Point",
        "coordinates": [
          -77.76402810926783,
          18.962140352328703
        ]
      }
    },
    {
      "type": "Feature",
      "properties": {
        "norad_id": 67056,
        "name": "STARLINK-36143",
        "group": "last-30-days",
        "lat": 14.9479330598197,
        "lon": -72.79180615518463,
        "alt_km": 318.9594276659591,
        "timestamp": "2025-12-22T05:49:02.189126+00:00",
        "meta_object_name": "STARLINK-36143",
        "meta_object_id": "2025-294AC",
        "meta_epoch": "2025-12-21T20:00:01.999008",
        "meta_mean_motion": 15.85145232,
        "meta_eccentricity": 0.0001411,
        "meta_inclination": 43.0003,
        "meta_ra_of_asc_node": 126.3733,
        "meta_arg_of_pericenter": 285.637,
        "meta_mean_anomaly": 56.2608,
        "meta_ephemeris_type": 0,
        "meta_classification_type": "U",
        "meta_norad_cat_id": 67056,
        "meta_element_set_no": 999,
        "meta_rev_at_epoch": 177,
        "meta_bstar": -0.0084695,
        "meta_mean_motion_dot": -0.01782464,
        "meta_mean_motion_ddot": 0,
        "tle_line1": "1 67056U 25294AC  25355.83335647 -.01782464  00000+0 -84695-2 0  9992",
        "tle_line2": "2 67056  43.0003 126.3733 0001411 285.6370  56.2608 15.85145232  1777"
      },
      "geometry": {
        "type": "Point",
        "coordinates": [
          -72.79180615518463,
          14.9479330598197
        ]
      }
    },
    {
      "type": "Feature",
      "properties": {
        "norad_id": 67057,
        "name": "STARLINK-36141",
        "group": "last-30-days",
        "lat": 16.35261839959952,
        "lon": -74.49096453565308,
        "alt_km": 318.7654611073349,
        "timestamp": "2025-12-22T05:49:02.189136+00:00",
        "meta_object_name": "STARLINK-36141",
        "meta_object_id": "2025-294AD",
        "meta_epoch": "2025-12-21T20:00:01.999008",
        "meta_mean_motion": 15.85156704,
        "meta_eccentricity": 0.0001549,
        "meta_inclination": 43,
        "meta_ra_of_asc_node": 126.3792,
        "meta_arg_of_pericenter": 282.3097,
        "meta_mean_anomaly": 57.4194,
        "meta_ephemeris_type": 0,
        "meta_classification_type": "U",
        "meta_norad_cat_id": 67057,
        "meta_element_set_no": 999,
        "meta_rev_at_epoch": 169,
        "meta_bstar": -0.0085059,
        "meta_mean_motion_dot": -0.01829422,
        "meta_mean_motion_ddot": 0,
        "tle_line1": "1 67057U 25294AD  25355.83335647 -.01829422  00000+0 -85059-2 0  9994",
        "tle_line2": "2 67057  43.0000 126.3792 0001549 282.3097  57.4194 15.85156704  1692"
      },
      "geometry": {
        "type": "Point",
        "coordinates": [
          -74.49096453565308,
          16.35261839959952
        ]
      }
    },
    {
      "type": "Feature",
      "properties": {
        "norad_id": 67058,
        "name": "STARLINK-35767",
        "group": "last-30-days",
        "lat": 17.63342502630486,
        "lon": -76.07707260100291,
        "alt_km": 318.67807436945077,
        "timestamp": "2025-12-22T05:49:02.189149+00:00",
        "meta_object_name": "STARLINK-35767",
        "meta_object_id": "2025-294AE",
        "meta_epoch": "2025-12-21T20:00:01.999008",
        "meta_mean_motion": 15.85148972,
        "meta_eccentricity": 0.0001692,
        "meta_inclination": 43.0003,
        "meta_ra_of_asc_node": 126.3839,
        "meta_arg_of_pericenter": 284.0615,
        "meta_mean_anomaly": 53.681,
        "meta_ephemeris_type": 0,
        "meta_classification_type": "U",
        "meta_norad_cat_id": 67058,
        "meta_element_set_no": 999,
        "meta_rev_at_epoch": 157,
        "meta_bstar": -0.0084306,
        "meta_mean_motion_dot": -0.01776037,
        "meta_mean_motion_ddot": 0,
        "tle_line1": "1 67058U 25294AE  25355.83335647 -.01776037  00000+0 -84306-2 0  9992",
        "tle_line2": "2 67058  43.0003 126.3839 0001692 284.0615  53.6810 15.85148972  1570"
      },
      "geometry": {
        "type": "Point",
        "coordinates": [
          -76.07707260100291,
          17.63342502630486
        ]
      }
    },
    {
      "type": "Feature",
      "properties": {
        "norad_id": 67059,
        "name": "HULIANWANG DIGUI-119",
        "group": "last-30-days",
        "lat": 14.339322878133615,
        "lon": -15.463705217403726,
        "alt_km": 809.8373109710501,
        "timestamp": "2025-12-22T05:49:02.189159+00:00",
        "meta_object_name": "HULIANWANG DIGUI-119",
        "meta_object_id": "2025-295A",
        "meta_epoch": "2025-12-21T14:34:38.561664",
        "meta_mean_motion": 14.24613512,
        "meta_eccentricity": 0.0013987,
        "meta_inclination": 50.0068,
        "meta_ra_of_asc_node": 334.8225,
        "meta_arg_of_pericenter": 277.7639,
        "meta_mean_anomaly": 82.1686,
        "meta_ephemeris_type": 0,
        "meta_classification_type": "U",
        "meta_norad_cat_id": 67059,
        "meta_element_set_no": 999,
        "meta_rev_at_epoch": 138,
        "meta_bstar": -1.843e-05,
        "meta_mean_motion_dot": -2.03e-06,
        "meta_mean_motion_ddot": 0,
        "tle_line1": "1 67059U 25295A   25355.60739076 -.00000203  00000+0 -18430-4 0  9994",
        "tle_line2": "2 67059  50.0068 334.8225 0013987 277.7639  82.1686 14.24613512  1386"
      },
      "geometry": {
        "type": "Point",
        "coordinates": [
          -15.463705217403726,
          14.339322878133615
        ]
      }
    },
    {
      "type": "Feature",
      "properties": {
        "norad_id": 67060,
        "name": "HULIANWANG DIGUI-120",
        "group": "last-30-days",
        "lat": 26.030355944852886,
        "lon": -3.6802549941979272,
        "alt_km": 806.6208837328995,
        "timestamp": "2025-12-22T05:49:02.189171+00:00",
        "meta_object_name": "HULIANWANG DIGUI-120",
        "meta_object_id": "2025-295B",
        "meta_epoch": "2025-12-21T12:49:54.103872",
        "meta_mean_motion": 14.25709935,
        "meta_eccentricity": 0.0013174,
        "meta_inclination": 50.0059,
        "meta_ra_of_asc_node": 335.1053,
        "meta_arg_of_pericenter": 278.4539,
        "meta_mean_anomaly": 81.4881,
        "meta_ephemeris_type": 0,
        "meta_classification_type": "U",
        "meta_norad_cat_id": 67060,
        "meta_element_set_no": 999,
        "meta_rev_at_epoch": 137,
        "meta_bstar": -1.4927e-05,
        "meta_mean_motion_dot": -1.96e-06,
        "meta_mean_motion_ddot": 0,
        "tle_line1": "1 67060U 25295B   25355.53465398 -.00000196  00000+0 -14927-4 0  9999",
        "tle_line2": "2 67060  50.0059 335.1053 0013174 278.4539  81.4881 14.25709935  1370"
      },
      "geometry": {
        "type": "Point",
        "coordinates": [
          -3.6802549941979272,
          26.030355944852886
        ]
      }
    }
  ]
}